[{"OBJECT_NAME":"STARLINK-35744","OBJECT_ID":"2025-268AA","EPOCH":"2026-03-09T04:16:03.817344","MEAN_MOTION":15.27606619,"ECCENTRICITY":0.00011404,"INCLINATION":43.0035,"RA_OF_ASC_NODE":349.7631,"ARG_OF_PERICENTER":278.4478,"MEAN_ANOMALY":81.6245,"EPHEMERIS_TYPE":0,"CLASSIFICATION_TYPE":"U","NORAD_CAT_ID":66581,"ELEMENT_SET_NO":999,"REV_AT_EPOCH":1788,"BSTAR":0.0010863805,"MEAN_MOTION_DOT":0.00029778,"MEAN_MOTION_DDOT":0},{"OBJECT_NAME":"KUIPER-00252","OBJECT_ID":"2025-301AA","EPOCH":"2026-03-09T22:00:01.999584","MEAN_MOTION":15.32961042,"ECCENTRICITY":0.00108625,"INCLINATION":51.8682,"RA_OF_ASC_NODE":64.6463,"ARG_OF_PERICENTER":55.9089,"MEAN_ANOMALY":330.8749,"EPHEMERIS_TYPE":0,"CLASSIFICATION_TYPE":"U","NORAD_CAT_ID":67157,"ELEMENT_SET_NO":999,"REV_AT_EPOCH":542,"BSTAR":-0.017504489,"MEAN_MOTION_DOT":-0.00529484,"MEAN_MOTION_DDOT":0}]
